STARLINK-36847          
1 67910U 26036G   26064.83334490 -.00033487  00000+0 -15701-3 0  9995
2 67910  42.9986 273.3810 0001744 280.8159 308.7112 15.82028417  3021
STARLINK-36736          
1 67911U 26036H   26064.83334490  .00008107  00000+0  41017-4 0  9995
2 67911  42.9988 273.3700 0001860 302.7171 291.1011 15.82004800  3022
STARLINK-36676          
1 67912U 26036J   26064.83334490 -.00003497  00000+0 -14076-4 0  9990
2 67912  42.9986 273.3596 0002030 264.7249 333.3527 15.82016841  3026
STARLINK-36690          
1 67913U 26036K   26064.83334490 -.00054599  00000+0 -25802-3 0  9998
2 67913  42.9987 273.3488 0001621 294.1971 308.1454 15.82046450  3020
STARLINK-36724          
1 67914U 26036L   26064.83334490  .00020065  00000+0  97696-4 0  9999
2 67914  42.9988 273.3266 0001963 302.1671 308.7259 15.81993777  3023
STARLINK-36723          
1 67915U 26036M   26064.83334490 -.00018633  00000+0 -86116-4 0  9995
2 67915  42.9987 273.3379 0001597 276.0895 330.5264 15.82023525  3023
STARLINK-36721          
1 67916U 26036N   26064.83334490 -.00003013  00000+0 -11777-4 0  9993
2 67916  42.9986 273.3168 0001878 310.2218 304.9327 15.82015618  3020
STARLINK-36722          
1 67917U 26036P   26064.83334490  .00092339  00000+0  43705-3 0  9996
2 67917  42.9968 273.3054 0001774 296.5554 322.8803 15.81983216  3024
STARLINK-36341          
1 67918U 26036Q   26064.83334490 -.00067898  00000+0 -32191-3 0  9998
2 67918  42.9942 273.2834 0001858 261.1326   6.8456 15.82050103  3024
STARLINK-36663          
1 67919U 26036R   26064.83334490  .00020837  00000+0  10123-3 0  9990
2 67919  42.9970 273.2948 0002310 298.4007 325.3084 15.82018135  3020
STARLINK-36375          
1 67920U 26036S   26064.83334490  .00019295  00000+0  94021-4 0  9998
2 67920  42.9957 273.2731 0002027 270.9405   1.3165 15.82000553  3025
STARLINK-36405          
1 67921U 26036T   26064.83334490 -.00000105  00000+0  20354-5 0  9999
2 67921  42.9957 273.2627 0001737 265.8486  10.6792 15.82006346  3024
